#dP2024  5  1  0  0  0.00000000      96 __u+U IGS20 FIT  IAC
## 2312 259200.00000000   900.00000000 60431 0.0000000000000
+  120   C06C07C08C09C10C11C12C13C14C16C19C20C21C22C23C24C25
+        C26C27C28C29C30C32C33C34C35C36C37C38C39C40C41C42C43
+        C44C45C46E02E03E04E05E07E08E09E10E11E12E13E14E15E18
+        E19E21E24E25E26E27E30E31E33E34E36G01G02G03G04G05G06
+        G07G08G09G10G11G12G13G14G15G16G17G18G19G20G21G22G23
+        G24G25G26G27G28G29G30G31G32J02J03J04R01R02R03R04R05
+        R07R08R09R11R12R13R14R15R16R17R18R19R20R21R22R24R25
+        R26  0  0  0  0  0  0  0  0  0  0  0  0  0  0  0  0
++         9  9  8  9  9  7  7  7  8  9  7  6  7  6  7  7  7
++         8  6  7  6  6  6  8  6  7  8  6  9  9  7  6  6  7
++         8  6  6  7  5  6  6  6  6  5  5  6  5  6  6  6  6
++         7  6  6  6  6  6  6  6  6  6  6  0  6  6  5  6  6
++         5  6  6  6  6  7  6  6  5  7  6  6  6  6  6  5  6
++         6  7  7  6  5  5  5  6  6  0  6  0  6  7  6  5  6
++         5  6  8  6  9  6  6  7  7  7  6  7  7  6  6  6  7
++         6  0  0  0  0  0  0  0  0  0  0  0  0  0  0  0  0
%c M  cc GPS ccc cccc cccc cccc cccc ccccc ccccc ccccc ccccc
%c cc cc ccc ccc cccc cccc cccc cccc ccccc ccccc ccccc ccccc
%f  0.0000000  0.000000000  0.00000000000  0.000000000000000
%f  0.0000000  0.000000000  0.00000000000  0.000000000000000
%i    0    0    0    0      0      0      0      0         0
%i    0    0    0    0      0      0      0      0         0
/* INFORMATION & ANALYSIS CENTER (IAC)      ULTRA-RAPID DATA
/* S/V CLOCKS ARE ALIGNED TO GNSS TIME                      
/* G:C1WC2W R:C1PC2P E:C1XC5X C:C2IC6I J:C1CC2S             
/* PCV:IGS20_2290 OL/AL:FES2004  NONE     YN ORB:CoN CLK:CoN
*  2024 05 01 12  0  0.00000000
PC06 -16747.386514  36011.630924 -14480.215609    388.149932
PC07  -3763.942029  35003.000178 -22971.090247   -769.982167
PC08 -10433.309712  18637.340330  36321.250483    -74.145305
PC09 -12971.241301  34896.797397 -19907.931503   -839.294343
PC10   3902.788170  37900.453763 -17119.144662     65.104603
PC11 -12097.324692  24887.771039  -3516.623306    540.131882
PC12 -17459.101570  10318.965767 -19138.132828   -239.817427
PC13  -1984.394054  21606.192575  36310.365733    433.733648
PC14  -5074.247564  16660.138194  21804.415403    776.017419
PC16 -20832.033177  35466.640923  -9768.387323   -493.145591
PC19  -3804.117521 -21807.445764 -16984.970330   -913.247927
PC20  11592.663292 -10428.242684 -23129.900477   -417.662846
PC21 -21444.965196  -8494.622126  15749.443691   -964.925026
PC22 -17920.852309 -21404.398359   -728.213020    -19.833446
PC23  13774.689965  12573.288165 -20754.542376   -777.127231
PC24 -23818.334138  11354.895118  -9064.774578    931.109511
PC25  -6442.152835  17026.997133 -21155.471244    388.700133
PC26 -26706.632866    -20.723597   8020.308601   -285.054740
PC27  16744.290989   -466.547885  22294.227249    306.713411
PC28   9085.539774  16939.141485  20231.284996    234.848915
PC29   4998.839284 -27078.156188  -4532.467590    275.536878
PC30  15631.961170 -18885.038728  13299.453500    -67.283479
PC32  21501.925260   8384.025758 -15654.172964   -613.438891
PC33   3779.041543  21732.468425  17083.148433   -967.969136
PC34 -15139.139923  20159.608946 -12005.233067    424.169632
PC35  -9644.874971 -16823.585125 -20070.824667    373.793397
PC36   7001.715191 -16881.277028  21112.882534     68.330395
PC37  26659.942856    777.416453  -8239.028777   -967.830630
PC38 -18249.099582  19095.316150  32880.510936    152.406012
PC39 -21866.898164  35878.254108  -4729.536466     -8.191849
PC40  -7296.994694  31631.243705 -26761.413696    -68.068025
PC41  17494.238005  21666.228560   1665.115308   -937.350257
PC42 -12973.954337   8923.805293  23086.134739   -442.654020
PC43  -5682.775260  27095.388987   3586.033066     70.036553
PC44 -16844.195525    911.095046 -22253.889758    460.192998
PC45 -13615.715770 -12550.478499  20869.374734    -83.134281
PC46  23455.378569 -11601.405660   9743.101090   -144.552783
PE02  20304.792145  17811.811786 -12132.038225    123.884452
PE03  11833.759425  24096.676187 -12448.418401   -110.875068
PE04 -17238.586828  -4638.999945  23626.233528   -386.598259
PE05   -401.093647  29022.602303   5798.769018   4743.650798
PE07  12636.548662 -16672.577455 -20934.300514   -117.645769
PE08  17077.070499   5584.558508 -23514.139382   -263.731006
PE09 -12580.973151  16521.381439  21094.938129   -427.024120
PE10 -25487.541866  11729.761248  -9446.964358   -621.398111
PE11 -23286.098571  18269.949322    875.789471   2947.450668
PE12 -23781.208252   4029.019294 -17182.660370  -1018.811592
PE13  23494.389938 -17991.184772   -285.563661    -21.323155
PE14   5401.319392 -27906.287188   9677.112348     22.807587
PE15  23506.806098  -3597.332476  17618.159006   -100.304839
PE18 -12152.891095  17559.269605 -16041.741594     61.142683
PE19 -10598.956988 -25463.441516  10764.437487   -143.110737
PE21  -1501.911980 -18142.171639  23335.860502   -592.164614
PE24 -19235.029020   7708.808195 -21148.062077   -738.040261
PE25   1043.181247  18032.328344 -23449.727249      3.982545
PE26   9126.101370 -21620.448571 -18036.378938    441.703526
PE27  18968.860363  -7913.263338  21300.925443   -338.276108
PE30  27991.392429   7038.068719   6576.753599   -255.147080
PE31 -27997.204654  -6851.937934  -6732.372270    -22.305050
PE33  -9254.783546 -13042.822447 -24909.724026     11.129208
PE34   9766.848856  12657.413659  24902.545062   -108.770344
PE36  -9778.046183  21627.137194  17694.177530   -221.006804
PG01  25333.032634   7774.448150   3212.864819 999999.999999
PG02  12620.079721 -21017.307388  -9373.382425   -443.909865
PG03   1341.414390 -15130.654962 -21952.937677    340.432850
PG04   2150.434577 -25310.312392  -7505.886702    351.282091
PG05 -16622.999730   8120.631669  18914.067303   -171.124545
PG06 -19689.953019    596.460273 -17808.058034    295.247469
PG07  -5873.261228 -15038.292411  21538.141000   -119.374050
PG08   7765.848274 -19488.032725  15921.870351    154.054631
PG09  -7898.896046 -24877.497611   4681.631029    180.260295
PG10  24319.490127  10931.307559   2190.526688    -16.184402
PG11 -23152.875962  10662.968136  -7350.015273   -651.083691
PG12  -4190.005557  14858.670611 -21900.893172   -501.488331
PG13 -13254.177087  11538.357255  19638.412441    647.109140
PG14 -22379.857102 -13471.843155   5412.044171    389.951591
PG15  -5335.594478  20555.923809  15334.360903    154.307695
PG16  20366.837149  -3000.722763  16692.426914   -302.944631
PG17 -12515.336111 -16804.302124 -15809.173372    709.328481
PG18   5858.494254  14110.943932  21716.028139   -603.692525
PG19 -14804.407313  -7731.912153 -20919.603319    475.906805
PG20 -24054.190515   3093.203479  10716.611755    378.175692
PG21  15973.293835 -19919.407781  -4542.920614    124.174504
PG22 -24227.268671 -10131.411447  -2298.532150     -7.431487
PG23  17311.155350  15453.877597  13122.011628    214.509514
PG24 -13009.646036  21474.703819  -8409.530628   -465.329794
PG25   7060.293185  17269.193080 -19339.419123    494.896539
PG26  25925.262301   3397.867030   5516.042825    159.157714
PG27  13514.591484  -8087.868998  21033.383455    -21.754064
PG28  18485.000096   1570.422548 -19018.399174   -225.612360
PG29   3861.005719  26085.507914   2559.325649   -600.030832
PG30 -15636.036047  -6855.000830  20546.617551   -397.077461
PG31  22996.577277  -7176.381052 -11828.970573   -227.936369
PG32  14557.388344  13811.901548 -17288.504496   -618.428331
PJ02 -24670.567641  17801.178681 -24622.182216 999999.999999
PJ03 -27756.599885  31654.330738   1459.829840      0.077983
PJ04      0.000000      0.000000      0.000000 999999.999999
PR01  -8157.858206 -21941.407906 -10149.805723     84.057743
PR02 -15059.246301 -19249.265196   7245.966434    -22.857028
PR03 -14278.507552  -5186.786415  20526.730264     99.304752
PR04  -5565.711463  11029.388319  22352.984563    234.448383
PR05   5938.600701  21616.620949  12206.030052    130.820983
PR07  14007.133775   4508.757815 -20802.434836     81.431838
PR08   5380.155135 -11317.206067 -22147.502451    -75.276381
PR09  18530.649893   7093.617670 -15960.176986    184.099474
PR11  19255.502377  -7552.564423  14925.061376     26.188025
PR12   -225.793738 -11031.504925  23021.898270     39.622381
PR13 -16410.801773  -8059.301991  17772.961511    -46.951067
PR14 -25512.692568    597.663471    123.002198     26.447873
PR15 -18135.771520   8018.783565 -16031.683402     80.169218
PR16    -36.701425  10875.280674 -23064.307153     25.218547
PR17 -14502.728549   7251.079144 -19676.213446     82.876616
PR18 -14928.470106  19674.442403  -6482.357761    139.891224
PR19  -9415.009899  22130.787628   8496.014300   -275.027355
PR20   4950.821790  10968.470381  22500.233710   -112.129971
PR21  14500.554867  -7137.198614  19736.596622    -97.247926
PR22  15261.071503 -19717.908096   5368.437070    114.313105
PR24  -6199.416793 -10454.913137 -22416.626165    -54.061656
PR25  15095.439361  -6796.228574  19414.272940    -32.834665
PR26   6082.982816 -10350.177126 -22484.460413    -22.027893
EOF
